[{"OBJECT_NAME":"STARLINK-32789","OBJECT_ID":"2025-004U","EPOCH":"2026-03-09T11:15:55.974240","MEAN_MOTION":15.27598741,"ECCENTRICITY":4.833e-5,"INCLINATION":43.0007,"RA_OF_ASC_NODE":221.2201,"ARG_OF_PERICENTER":304.5289,"MEAN_ANOMALY":55.5517,"EPHEMERIS_TYPE":0,"CLASSIFICATION_TYPE":"U","NORAD_CAT_ID":62529,"ELEMENT_SET_NO":999,"REV_AT_EPOCH":6642,"BSTAR":0.0012142031,"MEAN_MOTION_DOT":0.0003332,"MEAN_MOTION_DDOT":0},{"OBJECT_NAME":"REAL","OBJECT_ID":"2025-154G","EPOCH":"2026-03-09T17:20:09.670560","MEAN_MOTION":15.28408058,"ECCENTRICITY":0.00018528,"INCLINATION":97.4133,"RA_OF_ASC_NODE":137.2581,"ARG_OF_PERICENTER":118.5876,"MEAN_ANOMALY":241.555,"EPHEMERIS_TYPE":0,"CLASSIFICATION_TYPE":"U","NORAD_CAT_ID":64875,"ELEMENT_SET_NO":999,"REV_AT_EPOCH":3483,"BSTAR":0.0008290401,"MEAN_MOTION_DOT":0.00022901,"MEAN_MOTION_DDOT":0}]
