STARLINK-32789          
1 62529U 25004U   26068.46939785  .00033320  00000+0  12142-2 0  9990
2 62529  43.0007 221.2201 0000483 304.5289  55.5517 15.27598741 66421
REAL                    
1 64875U 25154G   26068.72233414  .00022901  00000+0  82904-3 0  9994
2 64875  97.4133 137.2581 0001853 118.5876 241.5550 15.28408058 34830
